OBJECT_NAME,OBJECT_ID,EPOCH,MEAN_MOTION,ECCENTRICITY,INCLINATION,RA_OF_ASC_NODE,ARG_OF_PERICENTER,MEAN_ANOMALY,EPHEMERIS_TYPE,CLASSIFICATION_TYPE,NORAD_CAT_ID,ELEMENT_SET_NO,REV_AT_EPOCH,BSTAR,MEAN_MOTION_DOT,MEAN_MOTION_DDOT
SWARM A,2013-067B,2026-07-12T02:54:51.888960,15.51418350,.0003314,87.3304,46.9712,94.8680,265.2960,0,U,39452,999,71011,.10567E-3,.6267E-4,0
SWARM C,2013-067C,2026-07-12T02:54:43.725024,15.51417731,.0003299,87.3304,45.5520,94.7090,265.4548,0,U,39453,999,71007,.1077E-3,.6386E-4,0
BRITE-CA1 (TORONTO),2014-033L,2026-07-11T20:05:46.288320,14.72718584,.00781937,97.9767,321.3152,197.0405,162.8175,0,U,40020,999,64584,.93137253E-4,.569E-5,0
OCO 2,2014-035A,2026-07-12T03:37:29.239104,14.57130867,.0001457,98.2021,134.0648,81.3866,278.7497,0,U,40059,999,63968,.52731E-4,.192E-5,0
BRITE-PL2 (HEWELIUSZ),2014-049B,2026-07-11T21:01:11.261856,14.94681645,.0014633,97.9118,305.0696,33.0365,327.1766,0,U,40119,999,64513,.9874E-4,.1013E-4,0
MMS 1,2015-011A,2026-07-12T06:00:02.000160,0.28513869,.8296919,72.4894,348.4728,167.9774,335.0720,0,U,40482,999,135,0,-.1269E-4,0
MMS 2,2015-011B,2026-07-12T06:00:02.000160,0.28514216,.8299731,72.4934,348.4719,167.9805,335.0595,0,U,40483,999,135,0,-.127E-4,0
MMS 3,2015-011C,2026-07-12T06:00:02.000160,0.28510112,.8298238,72.4934,348.4836,167.9915,335.0364,0,U,40484,999,132,0,-.1269E-4,0
MMS 4,2015-011D,2026-07-12T06:00:02.000160,0.28510067,.8298188,72.4891,348.4670,168.0014,335.0309,0,U,40485,999,138,0,-.1269E-4,0
ASTROSAT,2015-052A,2026-07-11T18:43:55.447104,14.82549129,.00077569,5.9982,338.3312,22.2669,337.7795,0,U,40930,999,58348,.62854136E-4,.1187E-4,0
DAMPE,2015-078A,2026-07-12T04:53:29.569344,15.30848574,.001194,97.4565,198.7943,356.3904,3.7248,0,U,41173,999,58837,.28295E-4,.767E-5,0
PISAT,2016-059B,2026-07-11T12:41:51.713664,14.69025621,.00302902,97.8188,191.9369,126.0385,234.3635,0,U,41784,999,52331,.93078043E-4,.502E-5,0
HXMT (HUIYAN),2017-034A,2026-07-12T01:30:39.184128,15.18672268,.0032578,43.0151,44.5064,301.6112,58.1559,0,U,42758,999,50144,.14977E-3,.2958E-4,0
FLYING LAPTOP,2017-042G,2026-07-12T04:20:21.513984,15.01300056,.0019827,97.4789,347.7711,42.0714,318.2029,0,U,42831,999,49020,.16362E-3,.2055E-4,0
ZHANGHENG 1-01 (CSES-1),2018-015C,2026-07-12T04:56:16.043136,15.20583320,.0016138,97.6883,359.3660,175.0328,185.1070,0,U,43194,999,46844,.19802E-3,.4279E-4,0
SALSAT,2020-068K,2026-07-11T12:58:29.571456,15.30139435,.00088233,97.8855,197.0941,206.5203,153.5586,0,U,46495,999,31908,.15528118E-3,.4447E-4,0
IXPE,2021-121A,2026-07-12T04:00:01.998720,15.10473251,.0007249,0.2288,127.9346,100.1339,333.7217,0,U,49954,999,572,.54577E-3,.10191E-3,0
