SWARM A                 
1 39452U 13067B   26193.12143390  .00006267  00000+0  10567-3 0  9996
2 39452  87.3304  46.9712 0003314  94.8680 265.2960 15.51418350710118
SWARM C                 
1 39453U 13067C   26193.12133941  .00006386  00000+0  10770-3 0  9996
2 39453  87.3304  45.5520 0003299  94.7090 265.4548 15.51417731710078
BRITE-CA1 (TORONTO)     
1 40020U 14033L   26192.83734130  .00000569  00000+0  93137-4 0  9992
2 40020  97.9767 321.3152 0078193 197.0405 162.8175 14.72718584645848
OCO 2                   
1 40059U 14035A   26193.15103286  .00000192  00000+0  52731-4 0  9991
2 40059  98.2021 134.0648 0001457  81.3866 278.7497 14.57130867639685
BRITE-PL2 (HEWELIUSZ)   
1 40119U 14049B   26192.87582479  .00001013  00000+0  98740-4 0  9999
2 40119  97.9118 305.0696 0014633  33.0365 327.1766 14.94681645645137
MMS 1                   
1 40482U 15011A   26193.25002315 -.00001269  00000+0  00000+0 0  9992
2 40482  72.4894 348.4728 8296919 167.9774 335.0720  0.28513869  1356
MMS 2                   
1 40483U 15011B   26193.25002315 -.00001270  00000+0  00000+0 0  9995
2 40483  72.4934 348.4719 8299731 167.9805 335.0595  0.28514216  1359
MMS 3                   
1 40484U 15011C   26193.25002315 -.00001269  00000+0  00000+0 0  9994
2 40484  72.4934 348.4836 8298238 167.9915 335.0364  0.28510112  1325
MMS 4                   
1 40485U 15011D   26193.25002315 -.00001269  00000+0  00000+0 0  9995
2 40485  72.4891 348.4670 8298188 168.0014 335.0309  0.28510067  1384
ASTROSAT                
1 40930U 15052A   26192.78050286  .00001187  00000+0  62854-4 0  9990
2 40930   5.9982 338.3312 0007756  22.2669 337.7795 14.82549129583480
DAMPE                   
1 41173U 15078A   26193.20381446  .00000767  00000+0  28295-4 0  9995
2 41173  97.4565 198.7943 0011940 356.3904   3.7248 15.30848574588370
PISAT                   
1 41784U 16059B   26192.52907076  .00000502  00000+0  93078-4 0  9998
2 41784  97.8188 191.9369 0030290 126.0385 234.3635 14.69025621523310
HXMT (HUIYAN)           
1 42758U 17034A   26193.06295352  .00002958  00000+0  14977-3 0  9998
2 42758  43.0151  44.5064 0032578 301.6112  58.1559 15.18672268501447
FLYING LAPTOP           
1 42831U 17042G   26193.18080456  .00002055  00000+0  16362-3 0  9997
2 42831  97.4789 347.7711 0019827  42.0714 318.2029 15.01300056490200
ZHANGHENG 1-01 (CSES-1) 
1 43194U 18015C   26193.20574124  .00004279  00000+0  19802-3 0  9996
2 43194  97.6883 359.3660 0016138 175.0328 185.1070 15.20583320468448
SALSAT                  
1 46495U 20068K   26192.54062004  .00004447  00000+0  15528-3 0  9997
2 46495  97.8855 197.0941 0008823 206.5203 153.5586 15.30139435319080
IXPE                    
1 49954U 21121A   26193.16668980  .00010191  00000+0  54577-3 0  9995
2 49954   0.2288 127.9346 0007249 100.1339 333.7217 15.10473251  5723
